OBJECT_NAME,OBJECT_ID,EPOCH,MEAN_MOTION,ECCENTRICITY,INCLINATION,RA_OF_ASC_NODE,ARG_OF_PERICENTER,MEAN_ANOMALY,EPHEMERIS_TYPE,CLASSIFICATION_TYPE,NORAD_CAT_ID,ELEMENT_SET_NO,REV_AT_EPOCH,BSTAR,MEAN_MOTION_DOT,MEAN_MOTION_DDOT
STARLINK-3931,2022-051R,2026-06-14T23:09:55.719936,15.08835338,.0001361,53.1603,52.3505,95.6956,264.4190,0,U,52548,999,22613,.21714E-4,.58E-6,0
STARLINK-3935,2022-051S,2026-06-15T09:08:44.945664,15.08828266,.000145,53.1617,50.4839,94.4571,265.6586,0,U,52549,999,22619,.37569E-4,.31E-5,0
STARLINK-3965,2022-051T,2026-06-15T08:52:50.616192,15.08833020,.0001379,53.1610,50.5319,91.5551,268.5599,0,U,52550,999,22619,.59837E-4,.664E-5,0
STARLINK-3969,2022-051U,2026-06-15T09:03:26.699040,15.08831733,.0001299,53.1608,50.4994,91.6473,268.4667,0,U,52551,999,22619,.83303E-4,.1038E-4,0
STARLINK-3966,2022-051V,2026-06-14T23:25:51.566592,15.08832884,.00012205,53.1594,52.4547,90.7775,269.3356,0,U,52552,999,22613,.78729949E-4,.965E-5,0
STARLINK-3858,2022-051W,2026-06-15T12:00:02.000160,15.98300388,.0000971,53.2192,32.9372,126.5819,238.2861,0,U,52553,999,594,.21896E-2,.1034796E-1,.5243E-3
STARLINK-3770,2022-051X,2026-06-15T00:20:49.788960,15.08820111,.0001213,53.1601,57.1326,94.2037,265.9093,0,U,52554,999,22606,-.7599688E-5,-.409E-5,0
STARLINK-3943,2022-051AA,2026-06-14T22:59:19.593024,15.08838642,.0001395,53.1614,52.3828,92.2839,267.8312,0,U,52557,999,22613,.55524E-4,.596E-5,0
STARLINK-3953,2022-051AC,2026-06-15T08:48:55.762848,15.08815194,.0001321,53.1595,40.7279,92.6197,267.4946,0,U,52559,999,22632,-.58877E-4,-.1224E-4,0
STARLINK-3956,2022-051AD,2026-06-15T08:27:40.453056,15.08829183,.0001361,53.1585,40.6137,104.2121,255.9021,0,U,52560,999,22632,.42593E-4,.39E-5,0
STARLINK-3955,2022-051AE,2026-06-15T09:37:13.958400,15.08828585,.000136,53.1601,55.3949,92.4482,267.6665,0,U,52561,999,22612,.51132E-4,.526E-5,0
STARLINK-3957,2022-051AF,2026-06-15T12:00:02.000160,15.11743126,.0002561,53.1592,39.9262,135.0646,357.5343,0,U,52562,999,584,.46669E-2,.81096E-3,0
STARLINK-3942,2022-051AG,2026-06-15T09:42:32.226624,15.08823487,.0001159,53.1600,55.3760,86.3706,273.7418,0,U,52563,999,22612,-.28751E-7,-.288E-5,0
STARLINK-3959,2022-051AH,2026-06-15T09:33:18.831168,15.08828841,.0001401,53.1600,55.4170,88.7989,271.3163,0,U,52564,999,22612,.55481E-4,.595E-5,0
STARLINK-3911,2022-051AJ,2026-06-15T08:22:21.220608,15.08844386,.000166,53.1606,40.6278,90.9128,269.2054,0,U,52565,999,22632,.12671E-3,.1729E-4,0
STARLINK-3938,2022-051AK,2026-06-14T23:27:49.519008,15.08837433,.0001711,53.1613,57.2941,69.6522,290.4653,0,U,52566,999,22606,-.12215175E-4,-.483E-5,0
STARLINK-3929,2022-051AL,2026-06-15T12:00:02.000160,15.13704237,.0001389,53.1609,39.8574,115.4337,71.2912,0,U,52567,999,584,.42991E-2,.78869E-3,0
STARLINK-3930,2022-051AM,2026-06-15T12:00:02.000160,15.11642927,.000252,53.1596,39.9283,54.2651,156.0687,0,U,52568,999,578,.42549E-2,.73627E-3,0
STARLINK-3927,2022-051AN,2026-06-14T20:58:46.565184,15.08832596,.00013161,53.1602,42.7611,89.7862,270.3280,0,U,52569,999,22625,.24433032E-4,.101E-5,0
STARLINK-3901,2022-051AQ,2026-06-15T12:00:02.000160,15.11536433,.0001951,53.1602,39.9315,66.7471,122.8169,0,U,52574,999,578,.43297E-2,.74714E-3,0
STARLINK-3932,2022-051AS,2026-06-15T09:11:27.285216,15.08835236,.0001294,53.1591,40.4728,86.6053,273.5086,0,U,52576,999,22633,.33658E-3,.5072E-4,0
STARLINK-3836,2022-051AT,2026-06-14T23:17:12.870240,15.08835820,.0001336,53.1601,57.3282,90.2755,269.8390,0,U,52577,999,22606,.43741E-4,.408E-5,0
STARLINK-3833,2022-051AU,2026-06-14T23:22:31.031328,15.08831915,.00013581,53.1595,57.3127,83.5658,276.5488,0,U,52578,999,22606,.36429967E-4,.292E-5,0
STARLINK-3893,2022-051AV,2026-06-15T12:00:02.000160,15.37708332,.0000788,53.2180,52.7454,46.1682,88.8528,0,U,52579,999,548,.32476E-2,.123644E-2,0
STARLINK-3919,2022-051AW,2026-06-14T23:13:17.793120,15.08837766,.000136,53.1604,57.3503,90.3249,269.7898,0,U,52580,999,22606,.28294E-4,.162E-5,0
STARLINK-3915,2022-051AX,2026-06-15T09:04:46.329600,15.08833360,.0001372,53.1594,40.4953,88.0567,272.0581,0,U,52581,999,22633,.92099E-4,.1178E-4,0
STARLINK-3895,2022-051AZ,2026-06-15T08:59:28.278240,15.08833737,.0001901,53.1599,40.5101,97.3496,262.7712,0,U,52583,999,22633,.98832E-4,.1285E-4,0
STARLINK-3922,2022-051BA,2026-06-15T09:10:04.272096,15.08840182,.0001501,53.1607,40.4765,91.5288,268.5875,0,U,52584,999,22633,.11586E-4,-.104E-5,0
STARLINK-3906,2022-051BB,2026-06-15T08:43:33.942720,15.08830264,.0001325,53.1584,40.5213,89.6061,270.5083,0,U,52585,999,22633,.44302E-4,.417E-5,0
STARLINK-3910,2022-051BC,2026-06-15T08:54:10.289088,15.08832802,.0001216,53.1583,40.5278,89.5487,270.5644,0,U,52586,999,22633,.37681E-4,.312E-5,0
