STARLINK-3931           
1 52548U 22051R   26165.96522824  .00000058  00000+0  21714-4 0  9993
2 52548  53.1603  52.3505 0001361  95.6956 264.4190 15.08835338226139
STARLINK-3935           
1 52549U 22051S   26166.38107576  .00000310  00000+0  37569-4 0  9990
2 52549  53.1617  50.4839 0001450  94.4571 265.6586 15.08828266226193
STARLINK-3965           
1 52550U 22051T   26166.37003028  .00000664  00000+0  59837-4 0  9992
2 52550  53.1610  50.5319 0001379  91.5551 268.5599 15.08833020226198
STARLINK-3969           
1 52551U 22051U   26166.37739235  .00001038  00000+0  83303-4 0  9990
2 52551  53.1608  50.4994 0001299  91.6473 268.4667 15.08831733226193
STARLINK-3966           
1 52552U 22051V   26165.97629128  .00000965  00000+0  78730-4 0  9991
2 52552  53.1594  52.4547 0001220  90.7775 269.3356 15.08832884226130
STARLINK-3858           
1 52553U 22051W   26166.50002315  .01034796  52430-3  21896-2 0  9992
2 52553  53.2192  32.9372 0000971 126.5819 238.2861 15.98300388  5942
STARLINK-3770           
1 52554U 22051X   26166.01446515 -.00000409  00000+0 -75997-5 0  9994
2 52554  53.1601  57.1326 0001213  94.2037 265.9093 15.08820111226062
STARLINK-3943           
1 52557U 22051AA  26165.95786566  .00000596  00000+0  55524-4 0  9990
2 52557  53.1614  52.3828 0001395  92.2839 267.8312 15.08838642226133
STARLINK-3953           
1 52559U 22051AC  26166.36731207 -.00001224  00000+0 -58877-4 0  9995
2 52559  53.1595  40.7279 0001321  92.6197 267.4946 15.08815194226321
STARLINK-3956           
1 52560U 22051AD  26166.35255154  .00000390  00000+0  42593-4 0  9997
2 52560  53.1585  40.6137 0001361 104.2121 255.9021 15.08829183226324
STARLINK-3955           
1 52561U 22051AE  26166.40085600  .00000526  00000+0  51132-4 0  9991
2 52561  53.1601  55.3949 0001360  92.4482 267.6665 15.08828585226122
STARLINK-3957           
1 52562U 22051AF  26166.50002315  .00081096  00000+0  46669-2 0  9993
2 52562  53.1592  39.9262 0002561 135.0646 357.5343 15.11743126  5845
STARLINK-3942           
1 52563U 22051AG  26166.40453966 -.00000288  00000+0 -28751-7 0  9998
2 52563  53.1600  55.3760 0001159  86.3706 273.7418 15.08823487226121
STARLINK-3959           
1 52564U 22051AH  26166.39813462  .00000595  00000+0  55481-4 0  9994
2 52564  53.1600  55.4170 0001401  88.7989 271.3163 15.08828841226127
STARLINK-3911           
1 52565U 22051AJ  26166.34885672  .00001729  00000+0  12671-3 0  9995
2 52565  53.1606  40.6278 0001660  90.9128 269.2054 15.08844386226325
STARLINK-3938           
1 52566U 22051AK  26165.97765647 -.00000483  00000+0 -12215-4 0  9996
2 52566  53.1613  57.2941 0001711  69.6522 290.4653 15.08837433226060
STARLINK-3929           
1 52567U 22051AL  26166.50002315  .00078869  00000+0  42991-2 0  9996
2 52567  53.1609  39.8574 0001389 115.4337  71.2912 15.13704237  5844
STARLINK-3930           
1 52568U 22051AM  26166.50002315  .00073627  00000+0  42549-2 0  9993
2 52568  53.1596  39.9283 0002520  54.2651 156.0687 15.11642927  5784
STARLINK-3927           
1 52569U 22051AN  26165.87415006  .00000101  00000+0  24433-4 0  9999
2 52569  53.1602  42.7611 0001316  89.7862 270.3280 15.08832596226254
STARLINK-3901           
1 52574U 22051AQ  26166.50002315  .00074714  00000+0  43297-2 0  9999
2 52574  53.1602  39.9315 0001951  66.7471 122.8169 15.11536433  5780
STARLINK-3932           
1 52576U 22051AS  26166.38295469  .00005072  00000+0  33658-3 0  9993
2 52576  53.1591  40.4728 0001294  86.6053 273.5086 15.08835236226338
STARLINK-3836           
1 52577U 22051AT  26165.97028785  .00000408  00000+0  43741-4 0  9996
2 52577  53.1601  57.3282 0001336  90.2755 269.8390 15.08835820226065
STARLINK-3833           
1 52578U 22051AU  26165.97397027  .00000292  00000+0  36430-4 0  9993
2 52578  53.1595  57.3127 0001358  83.5658 276.5488 15.08831915226061
STARLINK-3893           
1 52579U 22051AV  26166.50002315  .00123644  00000+0  32476-2 0  9998
2 52579  53.2180  52.7454 0000788  46.1682  88.8528 15.37708332  5481
STARLINK-3919           
1 52580U 22051AW  26165.96756705  .00000162  00000+0  28294-4 0  9992
2 52580  53.1604  57.3503 0001360  90.3249 269.7898 15.08837766226067
STARLINK-3915           
1 52581U 22051AX  26166.37831400  .00001178  00000+0  92099-4 0  9997
2 52581  53.1594  40.4953 0001372  88.0567 272.0581 15.08833360226330
STARLINK-3895           
1 52583U 22051AZ  26166.37463285  .00001285  00000+0  98832-4 0  9991
2 52583  53.1599  40.5101 0001901  97.3496 262.7712 15.08833737226335
STARLINK-3922           
1 52584U 22051BA  26166.38199389 -.00000104  00000+0  11586-4 0  9995
2 52584  53.1607  40.4765 0001501  91.5288 268.5875 15.08840182226338
STARLINK-3906           
1 52585U 22051BB  26166.36358730  .00000417  00000+0  44302-4 0  9999
2 52585  53.1584  40.5213 0001325  89.6061 270.5083 15.08830264226337
STARLINK-3910           
1 52586U 22051BC  26166.37095242  .00000312  00000+0  37681-4 0  9993
2 52586  53.1583  40.5278 0001216  89.5487 270.5644 15.08832802226331
